GOES 18                 
1 51850U 22021A   26066.52336347  .00000095  00000+0  00000+0 0  9991
2 51850   0.0311  63.1619 0000834 347.8880 165.5845  1.00273463  5572
GOES 19                 
1 60133U 24119A   26066.34628199 -.00000250  00000+0  00000+0 0  9998
2 60133   0.0453 327.2067 0001211  70.7637 176.5402  1.00271645  5948
