[{"OBJECT_NAME":"GOES 18","OBJECT_ID":"2022-021A","EPOCH":"2026-03-07T12:33:38.603808","MEAN_MOTION":1.00273463,"ECCENTRICITY":8.347e-5,"INCLINATION":0.0311,"RA_OF_ASC_NODE":63.1619,"ARG_OF_PERICENTER":347.888,"MEAN_ANOMALY":165.5845,"EPHEMERIS_TYPE":0,"CLASSIFICATION_TYPE":"U","NORAD_CAT_ID":51850,"ELEMENT_SET_NO":999,"REV_AT_EPOCH":557,"BSTAR":0,"MEAN_MOTION_DOT":9.5e-7,"MEAN_MOTION_DDOT":0},{"OBJECT_NAME":"GOES 19","OBJECT_ID":"2024-119A","EPOCH":"2026-03-07T08:18:38.763936","MEAN_MOTION":1.00271645,"ECCENTRICITY":0.0001211,"INCLINATION":0.0453,"RA_OF_ASC_NODE":327.2067,"ARG_OF_PERICENTER":70.7637,"MEAN_ANOMALY":176.5402,"EPHEMERIS_TYPE":0,"CLASSIFICATION_TYPE":"U","NORAD_CAT_ID":60133,"ELEMENT_SET_NO":999,"REV_AT_EPOCH":594,"BSTAR":0,"MEAN_MOTION_DOT":-2.5e-6,"MEAN_MOTION_DDOT":0}]
